NUSAT-50 (NANCY ROMAN)  
1 60493U 24149AB  26068.80227738  .00012094  00000+0  42252-3 0  9994
2 60493  97.3817 150.7693 0002523 238.0469 122.0527 15.29713355 86930
STARLINK-35531          
1 66112U 25236AC  26068.47962574  .00027548  00000+0  93900-3 0  9999
2 66112  53.1595 104.7600 0001491  76.8145 283.3022 15.30192173 22916
